1 27642U 03002A   03290.58925947 +.00001437 +00000-0 +14725-3 0  9996
2 27642 094.0047 322.0258 0003058 083.6200 276.5375 14.90888078041344
1 27642U 03002A   03290.99197070  .00001454  00000-0  14897-3 0  9998
2 27642 094.0047 322.2305 0003058 081.9761 278.1814 14.90889313 41408
1 27642U 03002A   03292.13298414  .00001357  00000-0  13909-3 0  9995
2 27642 094.0045 322.8105 0003084 080.4629 279.6945 14.90892278 41579
1 27642U 03002A   03292.66993527  .00000233  00000-0  25008-4 0  9996
2 27642 094.0049 323.0843 0002558 067.4429 292.7063 14.90887882 41654
1 27642U 03002A   03293.00552988 -.00000203 +00000-0 -19302-4 0  9996
2 27642 094.0051 323.2552 0002636 073.9048 286.2448 14.90885586041702
1 27642U 03002A   03293.13977346 -.00001468  00000-0 -14780-3 0  9997
2 27642 094.0057 323.3246 0003053 084.8248 275.3279 14.90878269 41729
1 27642U 03002A   03293.60961152 -.00002430 +00000-0 -24562-3 0  9996
2 27642 094.0053 323.5631 0002528 074.9346 285.2112 14.90871401041794
1 27642U 03002A   03294.61640839 -.00002998  00000-0 -30349-3 0  9993
2 27642 094.0048 324.0741 0002710 081.8661 278.2870 14.90862527 41945
1 27642U 03002A   03294.95200725 -.00002996 +00000-0 -30329-3 0  9992
2 27642 094.0048 324.2446 0002706 080.7440 279.4094 14.90860541041997
1 27642U 03002A   03295.62320247 -.00002555 +00000-0 -25840-3 0  9992
2 27642 094.0040 324.5847 0002800 084.5899 275.5652 14.90859606042091
1 27642U 03002A   03296.56287635 -.00001749  00000-0 -17646-3 0  9998
2 27642 094.0034 325.0623 0002813 084.1081 276.0603 14.90860700 42230
1 27642U 03002A   03296.96559223 -.00001677 +00000-0 -16920-3 0  9991
2 27642 094.0036 325.2674 0002830 082.2372 277.9180 14.90859809042295
1 27642U 03002A   03297.56966432 -.00001117  00000-0 -11224-3 0  9993
2 27642 094.0032 325.5745 0002591 075.6153 284.5361 14.90862237 42384
1 27642U 03002A   03297.63678152 -.00000777 +00000-0 -77695-4 0  9996
2 27642 094.0028 325.6087 0002911 086.1472 274.0103 14.90864349042391
1 27642U 03002A   03298.10661265 -.00000142  00000-0 -13104-4 0  9997
2 27642 094.0023 325.8475 0002488 070.7639 289.3857 14.90867856 42461
1 27642U 03002A   03298.64356458 +.00000466 +00000-0 +48665-4 0  9998
2 27642 094.0025 326.1217 0002969 085.7840 274.3726 14.90870809042545
1 27642U 03002A   03299.11339681  .00000938  00000-0  96573-4 0  9995
2 27642 094.0022 326.3607 0002797 080.9720 279.1823 14.90873610 42612
1 27642U 03002A   03300.05307180 -.00000382 +00000-0 -37555-4 0  9990
2 27642 094.0023 326.8366 0002813 082.3372 277.8169 14.90869426042751
1 27642U 03002A   03300.12019190 -.00000491  00000-0 -48584-4 0  9994
2 27642 094.0024 326.8706 0002858 081.3047 278.8503 14.90868946 42767
1 27642U 03002A   03300.99274661 -.00001019 +00000-0 -10225-3 0  9992
2 27642 094.0023 327.3133 0002631 075.9876 284.1636 14.90865761042897
1 27642U 03002A   03301.12698718 -.00001529  00000-0 -15413-3 0  9991
2 27642 094.0027 327.3817 0002743 078.0092 282.1421 14.90863512 42913
1 27642U 03002A   03301.93242384 -.00001390 +00000-0 -14003-3 0  9994
2 27642 094.0019 327.7897 0002773 077.3236 282.8303 14.90861756043039
1 27642U 03002A   03302.13378167 -.00000927  00000-0 -92908-4 0  9992
2 27642 094.0017 327.8919 0002639 073.9175 286.2347 14.90862979 43065
1 27642U 03002A   03302.60361686 +.00000384 +00000-0 +40331-4 0  9990
2 27642 094.0005 328.1293 0002953 078.9399 281.2158 14.90866835043131
1 27642U 03002A   03303.14057000  .00001596  00000-0  16338-3 0  9997
2 27642 094.0000 328.4016 0002737 071.9944 288.1601 14.90871803 43210
1 27642U 03002A   03303.61040018  .00003474  00000-0  35401-3 0  9999
2 27642 093.9993 328.6397 0003025 077.6701 282.4864 14.90879944 43287
1 27642U 03002A   03303.94599460 +.00003734 +00000-0 +38031-3 0  9996
2 27642 093.9993 328.8100 0002968 074.3297 285.8293 14.90883220043331
1 27642U 03002A   03304.61717355 +.00006228 +00000-0 +63304-3 0  9998
2 27642 093.9992 329.1517 0003036 074.7407 285.4162 14.90897678043434